STARLINK-31960          
1 59931U 24106K   26068.08861213 -.00003721  00000+0 -12580-3 0  9994
2 59931  42.9992 335.6842 0000843 285.8018  74.2740 15.27573360100433
PELICAN-6               
1 66703U 25276AP  26068.70709364  .00077979  00000+0  29726-2 0  9998
2 66703  97.4276 144.2072 0003569 157.8575 202.2819 15.26377980 15334
